CCSDS_OMM_VERS = 2.0
CREATION_DATE  = 
ORIGINATOR     = 

OBJECT_NAME    = ATLAS CENTAUR R/B
OBJECT_ID      = 1972-065B
CENTER_NAME    = EARTH
REF_FRAME      = TEME
TIME_SYSTEM    = UTC
MEAN_ELEMENT_THEORY = SGP/SGP4

EPOCH          = 2025-11-21T02:25:56.633088
MEAN_MOTION    = 14.77329300
ECCENTRICITY   = .003382
INCLINATION    = 35.0009
RA_OF_ASC_NODE = 221.9452
ARG_OF_PERICENTER = 178.3064
MEAN_ANOMALY   = 181.7755

EPHEMERIS_TYPE = 0
CLASSIFICATION_TYPE = U
NORAD_CAT_ID   = 6155
ELEMENT_SET_NO = 999
REV_AT_EPOCH   = 82519
BSTAR          = .16373E-3
MEAN_MOTION_DOT = .117E-4
MEAN_MOTION_DDOT = 0

CCSDS_OMM_VERS = 2.0
CREATION_DATE  = 
ORIGINATOR     = 

OBJECT_NAME    = SL-8 R/B
OBJECT_ID      = 1975-112B
CENTER_NAME    = EARTH
REF_FRAME      = TEME
TIME_SYSTEM    = UTC
MEAN_ELEMENT_THEORY = SGP/SGP4

EPOCH          = 2025-11-21T19:44:40.357248
MEAN_MOTION    = 14.38126348
ECCENTRICITY   = .0016093
INCLINATION    = 74.0606
RA_OF_ASC_NODE = 217.3299
ARG_OF_PERICENTER = 331.3948
MEAN_ANOMALY   = 28.6322

EPHEMERIS_TYPE = 0
CLASSIFICATION_TYPE = U
NORAD_CAT_ID   = 8459
ELEMENT_SET_NO = 999
REV_AT_EPOCH   = 61636
BSTAR          = .1065E-3
MEAN_MOTION_DOT = .297E-5
MEAN_MOTION_DDOT = 0

CCSDS_OMM_VERS = 2.0
CREATION_DATE  = 
ORIGINATOR     = 

OBJECT_NAME    = SL-3 R/B
OBJECT_ID      = 1977-057B
CENTER_NAME    = EARTH
REF_FRAME      = TEME
TIME_SYSTEM    = UTC
MEAN_ELEMENT_THEORY = SGP/SGP4

EPOCH          = 2025-11-21T19:17:11.649120
MEAN_MOTION    = 15.42270456
ECCENTRICITY   = .0006923
INCLINATION    = 97.5680
RA_OF_ASC_NODE = 128.3285
ARG_OF_PERICENTER = 320.6109
MEAN_ANOMALY   = 39.4633

EPHEMERIS_TYPE = 0
CLASSIFICATION_TYPE = U
NORAD_CAT_ID   = 10114
ELEMENT_SET_NO = 999
REV_AT_EPOCH   = 65168
BSTAR          = .31537E-3
MEAN_MOTION_DOT = .13491E-3
MEAN_MOTION_DDOT = 0

CCSDS_OMM_VERS = 2.0
CREATION_DATE  = 
ORIGINATOR     = 

OBJECT_NAME    = SEASAT 1
OBJECT_ID      = 1978-064A
CENTER_NAME    = EARTH
REF_FRAME      = TEME
TIME_SYSTEM    = UTC
MEAN_ELEMENT_THEORY = SGP/SGP4

EPOCH          = 2025-11-21T17:18:49.957920
MEAN_MOTION    = 14.46026968
ECCENTRICITY   = .0002152
INCLINATION    = 108.0081
RA_OF_ASC_NODE = 258.9432
ARG_OF_PERICENTER = 252.4262
MEAN_ANOMALY   = 107.6648

EPHEMERIS_TYPE = 0
CLASSIFICATION_TYPE = U
NORAD_CAT_ID   = 10967
ELEMENT_SET_NO = 999
REV_AT_EPOCH   = 49090
BSTAR          = .16297E-3
MEAN_MOTION_DOT = .444E-5
MEAN_MOTION_DDOT = 0

CCSDS_OMM_VERS = 2.0
CREATION_DATE  = 
ORIGINATOR     = 

OBJECT_NAME    = SL-14 R/B
OBJECT_ID      = 1979-011B
CENTER_NAME    = EARTH
REF_FRAME      = TEME
TIME_SYSTEM    = UTC
MEAN_ELEMENT_THEORY = SGP/SGP4

EPOCH          = 2025-11-21T17:25:16.476960
MEAN_MOTION    = 14.91734128
ECCENTRICITY   = .0017518
INCLINATION    = 82.5253
RA_OF_ASC_NODE = 198.9714
ARG_OF_PERICENTER = 60.7150
MEAN_ANOMALY   = 299.5818

EPHEMERIS_TYPE = 0
CLASSIFICATION_TYPE = U
NORAD_CAT_ID   = 11267
ELEMENT_SET_NO = 999
REV_AT_EPOCH   = 51268
BSTAR          = .60303E-4
MEAN_MOTION_DOT = .634E-5
MEAN_MOTION_DDOT = 0

CCSDS_OMM_VERS = 2.0
CREATION_DATE  = 
ORIGINATOR     = 

OBJECT_NAME    = SL-8 R/B
OBJECT_ID      = 1979-089B
CENTER_NAME    = EARTH
REF_FRAME      = TEME
TIME_SYSTEM    = UTC
MEAN_ELEMENT_THEORY = SGP/SGP4

EPOCH          = 2025-11-21T08:00:31.704192
MEAN_MOTION    = 14.42262415
ECCENTRICITY   = .0014736
INCLINATION    = 74.0681
RA_OF_ASC_NODE = 291.5972
ARG_OF_PERICENTER = 134.9482
MEAN_ANOMALY   = 225.2872

EPHEMERIS_TYPE = 0
CLASSIFICATION_TYPE = U
NORAD_CAT_ID   = 11574
ELEMENT_SET_NO = 999
REV_AT_EPOCH   = 42048
BSTAR          = .10855E-3
MEAN_MOTION_DOT = .332E-5
MEAN_MOTION_DDOT = 0

CCSDS_OMM_VERS = 2.0
CREATION_DATE  = 
ORIGINATOR     = 

OBJECT_NAME    = SL-14 R/B
OBJECT_ID      = 1980-005B
CENTER_NAME    = EARTH
REF_FRAME      = TEME
TIME_SYSTEM    = UTC
MEAN_ELEMENT_THEORY = SGP/SGP4

EPOCH          = 2025-11-21T17:38:36.784608
MEAN_MOTION    = 14.90753745
ECCENTRICITY   = .0016325
INCLINATION    = 82.5163
RA_OF_ASC_NODE = 49.6165
ARG_OF_PERICENTER = 158.6836
MEAN_ANOMALY   = 201.5067

EPHEMERIS_TYPE = 0
CLASSIFICATION_TYPE = U
NORAD_CAT_ID   = 11672
ELEMENT_SET_NO = 999
REV_AT_EPOCH   = 46040
BSTAR          = .75513E-4
MEAN_MOTION_DOT = .769E-5
MEAN_MOTION_DDOT = 0

CCSDS_OMM_VERS = 2.0
CREATION_DATE  = 
ORIGINATOR     = 

OBJECT_NAME    = SL-8 R/B
OBJECT_ID      = 1981-003B
CENTER_NAME    = EARTH
REF_FRAME      = TEME
TIME_SYSTEM    = UTC
MEAN_ELEMENT_THEORY = SGP/SGP4

EPOCH          = 2025-11-21T14:46:28.089696
MEAN_MOTION    = 15.06020396
ECCENTRICITY   = .0281938
INCLINATION    = 82.9325
RA_OF_ASC_NODE = 29.6318
ARG_OF_PERICENTER = 193.3350
MEAN_ANOMALY   = 166.0324

EPHEMERIS_TYPE = 0
CLASSIFICATION_TYPE = U
NORAD_CAT_ID   = 12139
ELEMENT_SET_NO = 999
REV_AT_EPOCH   = 29838
BSTAR          = .61049E-3
MEAN_MOTION_DOT = .225E-3
MEAN_MOTION_DDOT = 0

CCSDS_OMM_VERS = 2.0
CREATION_DATE  = 
ORIGINATOR     = 

OBJECT_NAME    = SL-3 R/B
OBJECT_ID      = 1981-046B
CENTER_NAME    = EARTH
REF_FRAME      = TEME
TIME_SYSTEM    = UTC
MEAN_ELEMENT_THEORY = SGP/SGP4

EPOCH          = 2025-11-21T19:51:46.368000
MEAN_MOTION    = 15.39003283
ECCENTRICITY   = .0020323
INCLINATION    = 81.2344
RA_OF_ASC_NODE = 58.9391
ARG_OF_PERICENTER = 36.6792
MEAN_ANOMALY   = 323.5835

EPHEMERIS_TYPE = 0
CLASSIFICATION_TYPE = U
NORAD_CAT_ID   = 12465
ELEMENT_SET_NO = 999
REV_AT_EPOCH   = 42182
BSTAR          = .31232E-3
MEAN_MOTION_DOT = .12179E-3
MEAN_MOTION_DDOT = 0

CCSDS_OMM_VERS = 2.0
CREATION_DATE  = 
ORIGINATOR     = 

OBJECT_NAME    = SL-3 R/B
OBJECT_ID      = 1981-103B
CENTER_NAME    = EARTH
REF_FRAME      = TEME
TIME_SYSTEM    = UTC
MEAN_ELEMENT_THEORY = SGP/SGP4

EPOCH          = 2025-11-21T19:01:13.186272
MEAN_MOTION    = 15.19868326
ECCENTRICITY   = .0011528
INCLINATION    = 81.1586
RA_OF_ASC_NODE = 339.8820
ARG_OF_PERICENTER = 295.5310
MEAN_ANOMALY   = 64.4729

EPHEMERIS_TYPE = 0
CLASSIFICATION_TYPE = U
NORAD_CAT_ID   = 12904
ELEMENT_SET_NO = 999
REV_AT_EPOCH   = 95683
BSTAR          = .36685E-3
MEAN_MOTION_DOT = .7909E-4
MEAN_MOTION_DDOT = 0

CCSDS_OMM_VERS = 2.0
CREATION_DATE  = 
ORIGINATOR     = 

OBJECT_NAME    = SL-3 R/B
OBJECT_ID      = 1982-013B
CENTER_NAME    = EARTH
REF_FRAME      = TEME
TIME_SYSTEM    = UTC
MEAN_ELEMENT_THEORY = SGP/SGP4

EPOCH          = 2025-11-21T20:29:43.675872
MEAN_MOTION    = 15.20815815
ECCENTRICITY   = .002274
INCLINATION    = 81.1738
RA_OF_ASC_NODE = 287.0516
ARG_OF_PERICENTER = 178.7503
MEAN_ANOMALY   = 181.3790

EPHEMERIS_TYPE = 0
CLASSIFICATION_TYPE = U
NORAD_CAT_ID   = 13068
ELEMENT_SET_NO = 999
REV_AT_EPOCH   = 38795
BSTAR          = .23086E-3
MEAN_MOTION_DOT = .5151E-4
MEAN_MOTION_DDOT = 0

CCSDS_OMM_VERS = 2.0
CREATION_DATE  = 
ORIGINATOR     = 

OBJECT_NAME    = SL-3 R/B
OBJECT_ID      = 1982-039B
CENTER_NAME    = EARTH
REF_FRAME      = TEME
TIME_SYSTEM    = UTC
MEAN_ELEMENT_THEORY = SGP/SGP4

EPOCH          = 2025-11-21T19:46:42.132000
MEAN_MOTION    = 15.09352330
ECCENTRICITY   = .0031414
INCLINATION    = 81.1758
RA_OF_ASC_NODE = 340.1520
ARG_OF_PERICENTER = 321.9212
MEAN_ANOMALY   = 37.9792

EPHEMERIS_TYPE = 0
CLASSIFICATION_TYPE = U
NORAD_CAT_ID   = 13154
ELEMENT_SET_NO = 999
REV_AT_EPOCH   = 36536
BSTAR          = .17335E-3
MEAN_MOTION_DOT = .2821E-4
MEAN_MOTION_DDOT = 0

