ATLAS CENTAUR R/B       
1 06155U 72065B   25325.10134992  .00001170  00000+0  16373-3 0  9994
2 06155  35.0009 221.9452 0033820 178.3064 181.7755 14.77329300825191
SL-8 R/B                
1 08459U 75112B   25325.82268932  .00000297  00000+0  10650-3 0  9991
2 08459  74.0606 217.3299 0016093 331.3948  28.6322 14.38126348616369
SL-3 R/B                
1 10114U 77057B   25325.80360705  .00013491  00000+0  31537-3 0  9998
2 10114  97.5680 128.3285 0006923 320.6109  39.4633 15.42270456651684
SEASAT 1                
1 10967U 78064A   25325.72141155  .00000444  00000+0  16297-3 0  9990
2 10967 108.0081 258.9432 0002152 252.4262 107.6648 14.46026968490909
SL-14 R/B               
1 11267U 79011B   25325.72588515  .00000634  00000+0  60303-4 0  9991
2 11267  82.5253 198.9714 0017518  60.7150 299.5818 14.91734128512688
SL-8 R/B                
1 11574U 79089B   25325.33370028  .00000332  00000+0  10855-3 0  9993
2 11574  74.0681 291.5972 0014736 134.9482 225.2872 14.42262415420480
SL-14 R/B               
1 11672U 80005B   25325.73514797  .00000769  00000+0  75513-4 0  9996
2 11672  82.5163  49.6165 0016325 158.6836 201.5067 14.90753745460409
SL-8 R/B                
1 12139U 81003B   25325.61560289  .00022500  00000+0  61049-3 0  9993
2 12139  82.9325  29.6318 0281938 193.3350 166.0324 15.06020396298385
SL-3 R/B                
1 12465U 81046B   25325.82762000  .00012179  00000+0  31232-3 0  9992
2 12465  81.2344  58.9391 0020323  36.6792 323.5835 15.39003283421820
SL-3 R/B                
1 12904U 81103B   25325.79251373  .00007909  00000+0  36685-3 0  9998
2 12904  81.1586 339.8820 0011528 295.5310  64.4729 15.19868326956834
SL-3 R/B                
1 13068U 82013B   25325.85397773  .00005151  00000+0  23086-3 0  9991
2 13068  81.1738 287.0516 0022740 178.7503 181.3790 15.20815815387950
SL-3 R/B                
1 13154U 82039B   25325.82409875  .00002821  00000+0  17335-3 0  9990
2 13154  81.1758 340.1520 0031414 321.9212  37.9792 15.09352330365365
